OBJECT_NAME,OBJECT_ID,EPOCH,MEAN_MOTION,ECCENTRICITY,INCLINATION,RA_OF_ASC_NODE,ARG_OF_PERICENTER,MEAN_ANOMALY,EPHEMERIS_TYPE,CLASSIFICATION_TYPE,NORAD_CAT_ID,ELEMENT_SET_NO,REV_AT_EPOCH,BSTAR,MEAN_MOTION_DOT,MEAN_MOTION_DDOT
LEMUR-2-STARLIGHT,2025-276DY,2026-07-16T03:16:58.154016,14.99362068,.0014682,97.5236,266.7857,44.7641,315.4765,0,U,66783,999,3453,.30612E-3,.3695E-4,0
LEMUR-2-TARTIFLETTE,2025-276DZ,2026-07-16T03:14:40.828992,14.99346228,.0013932,97.5234,266.7927,52.8232,307.4262,0,U,66784,999,3453,.28086E-3,.3383E-4,0
LEMUR-2-VUKASIN,2025-276EA,2026-07-16T04:06:56.037888,15.00551009,.0002893,97.5222,267.1884,51.9297,308.2188,0,U,66785,999,3449,.18216E-3,.2241E-4,0
LEMUR-2-HOTSPUR-TOM,2025-276EB,2026-07-16T03:06:42.490080,14.99246630,.0013744,97.5217,266.7611,44.3359,315.8962,0,U,66786,999,3446,.24089E-3,.2886E-4,0
LEMUR-2-MYRA,2025-276EC,2026-07-16T03:16:48.484128,15.00595023,.0018687,97.5220,267.0739,51.4695,308.8201,0,U,66787,999,3455,.25422E-3,.3164E-4,0
LEMUR-2 FIKRETDENGIZ,2026-004A,2026-07-15T23:23:09.964032,14.88519982,.0010146,97.8025,195.0951,53.5985,306.6166,0,U,67363,999,2756,.18371E-3,.1654E-4,0
TWILIGHT-1 OBJECT B,2026-004B,2026-07-15T22:40:21.165024,14.87794860,.0009685,97.8075,195.0660,43.7671,316.4311,0,U,67364,999,2756,.10233E-3,.88E-5,0
LEMUR-2-MARIO-SOUSA,2026-004C,2026-07-15T22:54:00.656928,14.88731264,.0009802,97.7998,195.0701,54.9216,305.2919,0,U,67365,999,2757,.25951E-3,.2372E-4,0
LEMUR-2-SONNENBLUME,2026-004E,2026-07-15T22:58:19.216704,14.88455287,.0009352,97.8001,195.0453,55.9946,304.2157,0,U,67367,999,2757,.15379E-3,.1373E-4,0
LEMUR-2-WOBLER,2026-004F,2026-07-15T22:42:42.984576,14.88700946,.0009423,97.8049,195.1864,48.0590,312.1428,0,U,67368,999,2757,.23857E-3,.2174E-4,0
LEMUR-2-GRAM-E-SUE,2026-004H,2026-07-16T00:08:15.547200,14.88591442,.0008551,97.7987,195.1096,58.8174,301.3880,0,U,67370,999,2758,.13657E-3,.1218E-4,0
LEMUR-2-KATIE,2026-004AA,2026-07-15T18:14:55.437504,14.90254887,.00034704,97.8043,195.4216,32.8536,327.2897,0,U,67387,999,2756,.2697952E-3,.2563E-4,0
LEMUR-2-HCS-BAZUS,2026-004AB,2026-07-15T21:25:55.433280,14.90263817,.0002924,97.8038,195.5306,31.8037,328.3357,0,U,67388,999,2758,.15797E-3,.1478E-4,0
